CCSDS_OMM_VERS = 2.0
CREATION_DATE  = 
ORIGINATOR     = 

OBJECT_NAME    = ISS (ZARYA)
OBJECT_ID      = 1998-067A
CENTER_NAME    = EARTH
REF_FRAME      = TEME
TIME_SYSTEM    = UTC
MEAN_ELEMENT_THEORY = SGP/SGP4

EPOCH          = 2026-03-28T20:59:21.130368
MEAN_MOTION    = 15.48616916
ECCENTRICITY   = .0006219
INCLINATION    = 51.6344
RA_OF_ASC_NODE = 337.5169
ARG_OF_PERICENTER = 244.1555
MEAN_ANOMALY   = 115.8792

EPHEMERIS_TYPE = 0
CLASSIFICATION_TYPE = U
NORAD_CAT_ID   = 25544
ELEMENT_SET_NO = 999
REV_AT_EPOCH   = 55930
BSTAR          = .21128E-3
MEAN_MOTION_DOT = .11057E-3
MEAN_MOTION_DDOT = 0

CCSDS_OMM_VERS = 2.0
CREATION_DATE  = 
ORIGINATOR     = 

OBJECT_NAME    = POISK
OBJECT_ID      = 2009-060A
CENTER_NAME    = EARTH
REF_FRAME      = TEME
TIME_SYSTEM    = UTC
MEAN_ELEMENT_THEORY = SGP/SGP4

EPOCH          = 2026-03-28T20:59:21.130368
MEAN_MOTION    = 15.48616916
ECCENTRICITY   = .0006219
INCLINATION    = 51.6344
RA_OF_ASC_NODE = 337.5169
ARG_OF_PERICENTER = 244.1555
MEAN_ANOMALY   = 115.8792

EPHEMERIS_TYPE = 0
CLASSIFICATION_TYPE = U
NORAD_CAT_ID   = 36086
ELEMENT_SET_NO = 999
REV_AT_EPOCH   = 55910
BSTAR          = .21128E-3
MEAN_MOTION_DOT = .11057E-3
MEAN_MOTION_DDOT = 0

CCSDS_OMM_VERS = 2.0
CREATION_DATE  = 
ORIGINATOR     = 

OBJECT_NAME    = CSS (TIANHE)
OBJECT_ID      = 2021-035A
CENTER_NAME    = EARTH
REF_FRAME      = TEME
TIME_SYSTEM    = UTC
MEAN_ELEMENT_THEORY = SGP/SGP4

EPOCH          = 2026-03-28T17:09:45.866016
MEAN_MOTION    = 15.61588811
ECCENTRICITY   = .0003974
INCLINATION    = 41.4668
RA_OF_ASC_NODE = 92.3127
ARG_OF_PERICENTER = 49.2611
MEAN_ANOMALY   = 310.8573

EPHEMERIS_TYPE = 0
CLASSIFICATION_TYPE = U
NORAD_CAT_ID   = 48274
ELEMENT_SET_NO = 999
REV_AT_EPOCH   = 28058
BSTAR          = .18634E-3
MEAN_MOTION_DOT = .16171E-3
MEAN_MOTION_DDOT = 0

CCSDS_OMM_VERS = 2.0
CREATION_DATE  = 
ORIGINATOR     = 

OBJECT_NAME    = ISS (NAUKA)
OBJECT_ID      = 2021-066A
CENTER_NAME    = EARTH
REF_FRAME      = TEME
TIME_SYSTEM    = UTC
MEAN_ELEMENT_THEORY = SGP/SGP4

EPOCH          = 2026-03-28T20:59:21.130368
MEAN_MOTION    = 15.48616916
ECCENTRICITY   = .0006219
INCLINATION    = 51.6344
RA_OF_ASC_NODE = 337.5169
ARG_OF_PERICENTER = 244.1555
MEAN_ANOMALY   = 115.8792

EPHEMERIS_TYPE = 0
CLASSIFICATION_TYPE = U
NORAD_CAT_ID   = 49044
ELEMENT_SET_NO = 999
REV_AT_EPOCH   = 55914
BSTAR          = .21128E-3
MEAN_MOTION_DOT = .11057E-3
MEAN_MOTION_DDOT = 0

CCSDS_OMM_VERS = 2.0
CREATION_DATE  = 
ORIGINATOR     = 

OBJECT_NAME    = FREGAT DEB
OBJECT_ID      = 2011-037PF
CENTER_NAME    = EARTH
REF_FRAME      = TEME
TIME_SYSTEM    = UTC
MEAN_ELEMENT_THEORY = SGP/SGP4

EPOCH          = 2026-03-28T10:58:46.054272
MEAN_MOTION    = 12.40739176
ECCENTRICITY   = .09610804
INCLINATION    = 51.6446
RA_OF_ASC_NODE = 244.4001
ARG_OF_PERICENTER = 102.4503
MEAN_ANOMALY   = 268.5459

EPHEMERIS_TYPE = 0
CLASSIFICATION_TYPE = U
NORAD_CAT_ID   = 49271
ELEMENT_SET_NO = 999
REV_AT_EPOCH   = 21502
BSTAR          = .14560573E-1
MEAN_MOTION_DOT = .10214E-3
MEAN_MOTION_DDOT = 0

CCSDS_OMM_VERS = 2.0
CREATION_DATE  = 
ORIGINATOR     = 

OBJECT_NAME    = CSS (WENTIAN)
OBJECT_ID      = 2022-085A
CENTER_NAME    = EARTH
REF_FRAME      = TEME
TIME_SYSTEM    = UTC
MEAN_ELEMENT_THEORY = SGP/SGP4

EPOCH          = 2026-03-28T17:09:45.866016
MEAN_MOTION    = 15.61588811
ECCENTRICITY   = .0003974
INCLINATION    = 41.4668
RA_OF_ASC_NODE = 92.3127
ARG_OF_PERICENTER = 49.2611
MEAN_ANOMALY   = 310.8573

EPHEMERIS_TYPE = 0
CLASSIFICATION_TYPE = U
NORAD_CAT_ID   = 53239
ELEMENT_SET_NO = 999
REV_AT_EPOCH   = 28077
BSTAR          = .18634E-3
MEAN_MOTION_DOT = .16171E-3
MEAN_MOTION_DDOT = 0

CCSDS_OMM_VERS = 2.0
CREATION_DATE  = 
ORIGINATOR     = 

OBJECT_NAME    = CSS (MENGTIAN)
OBJECT_ID      = 2022-143A
CENTER_NAME    = EARTH
REF_FRAME      = TEME
TIME_SYSTEM    = UTC
MEAN_ELEMENT_THEORY = SGP/SGP4

EPOCH          = 2026-03-28T17:09:45.866016
MEAN_MOTION    = 15.61588811
ECCENTRICITY   = .0003974
INCLINATION    = 41.4668
RA_OF_ASC_NODE = 92.3127
ARG_OF_PERICENTER = 49.2611
MEAN_ANOMALY   = 310.8573

EPHEMERIS_TYPE = 0
CLASSIFICATION_TYPE = U
NORAD_CAT_ID   = 54216
ELEMENT_SET_NO = 999
REV_AT_EPOCH   = 28077
BSTAR          = .18634E-3
MEAN_MOTION_DOT = .16171E-3
MEAN_MOTION_DDOT = 0

CCSDS_OMM_VERS = 2.0
CREATION_DATE  = 
ORIGINATOR     = 

OBJECT_NAME    = TIANZHOU-9
OBJECT_ID      = 2025-149A
CENTER_NAME    = EARTH
REF_FRAME      = TEME
TIME_SYSTEM    = UTC
MEAN_ELEMENT_THEORY = SGP/SGP4

EPOCH          = 2026-03-28T17:09:45.866016
MEAN_MOTION    = 15.61588811
ECCENTRICITY   = .0003974
INCLINATION    = 41.4668
RA_OF_ASC_NODE = 92.3127
ARG_OF_PERICENTER = 49.2611
MEAN_ANOMALY   = 310.8573

EPHEMERIS_TYPE = 0
CLASSIFICATION_TYPE = U
NORAD_CAT_ID   = 64786
ELEMENT_SET_NO = 999
REV_AT_EPOCH   = 28077
BSTAR          = .18634E-3
MEAN_MOTION_DOT = .16171E-3
MEAN_MOTION_DDOT = 0

CCSDS_OMM_VERS = 2.0
CREATION_DATE  = 
ORIGINATOR     = 

OBJECT_NAME    = PROGRESS-MS 32
OBJECT_ID      = 2025-204A
CENTER_NAME    = EARTH
REF_FRAME      = TEME
TIME_SYSTEM    = UTC
MEAN_ELEMENT_THEORY = SGP/SGP4

EPOCH          = 2026-03-28T03:57:10.438560
MEAN_MOTION    = 15.48601072
ECCENTRICITY   = .00062264
INCLINATION    = 51.6345
RA_OF_ASC_NODE = 341.0267
ARG_OF_PERICENTER = 240.9881
MEAN_ANOMALY   = 119.0483

EPHEMERIS_TYPE = 0
CLASSIFICATION_TYPE = U
NORAD_CAT_ID   = 65586
ELEMENT_SET_NO = 999
REV_AT_EPOCH   = 55450
BSTAR          = .24002995E-3
MEAN_MOTION_DOT = .12619E-3
MEAN_MOTION_DDOT = 0

CCSDS_OMM_VERS = 2.0
CREATION_DATE  = 
ORIGINATOR     = 

OBJECT_NAME    = YOTSUBA-KULOVER
OBJECT_ID      = 1998-067XN
CENTER_NAME    = EARTH
REF_FRAME      = TEME
TIME_SYSTEM    = UTC
MEAN_ELEMENT_THEORY = SGP/SGP4

EPOCH          = 2026-03-28T19:17:35.003904
MEAN_MOTION    = 15.91367134
ECCENTRICITY   = .000585
INCLINATION    = 51.6176
RA_OF_ASC_NODE = 317.4280
ARG_OF_PERICENTER = 214.5448
MEAN_ANOMALY   = 145.5178

EPHEMERIS_TYPE = 0
CLASSIFICATION_TYPE = U
NORAD_CAT_ID   = 65941
ELEMENT_SET_NO = 999
REV_AT_EPOCH   = 2653
BSTAR          = .12353E-2
MEAN_MOTION_DOT = .404262E-2
MEAN_MOTION_DDOT = .73093E-4

CCSDS_OMM_VERS = 2.0
CREATION_DATE  = 
ORIGINATOR     = 

OBJECT_NAME    = BOTAN
OBJECT_ID      = 1998-067XQ
CENTER_NAME    = EARTH
REF_FRAME      = TEME
TIME_SYSTEM    = UTC
MEAN_ELEMENT_THEORY = SGP/SGP4

EPOCH          = 2026-03-28T19:33:48.125376
MEAN_MOTION    = 15.90466020
ECCENTRICITY   = .0006209
INCLINATION    = 51.6219
RA_OF_ASC_NODE = 317.5280
ARG_OF_PERICENTER = 211.0535
MEAN_ANOMALY   = 149.0104

EPHEMERIS_TYPE = 0
CLASSIFICATION_TYPE = U
NORAD_CAT_ID   = 65943
ELEMENT_SET_NO = 999
REV_AT_EPOCH   = 2653
BSTAR          = .12009E-2
MEAN_MOTION_DOT = .375101E-2
MEAN_MOTION_DDOT = .63623E-4

CCSDS_OMM_VERS = 2.0
CREATION_DATE  = 
ORIGINATOR     = 

OBJECT_NAME    = HRC MONOBLOCK CAMERA
OBJECT_ID      = 1998-067XR
CENTER_NAME    = EARTH
REF_FRAME      = TEME
TIME_SYSTEM    = UTC
MEAN_ELEMENT_THEORY = SGP/SGP4

EPOCH          = 2026-03-28T16:29:06.612576
MEAN_MOTION    = 15.64203864
ECCENTRICITY   = .0003791
INCLINATION    = 51.6284
RA_OF_ASC_NODE = 329.5117
ARG_OF_PERICENTER = 182.4052
MEAN_ANOMALY   = 177.6925

EPHEMERIS_TYPE = 0
CLASSIFICATION_TYPE = U
NORAD_CAT_ID   = 66052
ELEMENT_SET_NO = 999
REV_AT_EPOCH   = 2536
BSTAR          = .59924E-3
MEAN_MOTION_DOT = .58052E-3
MEAN_MOTION_DDOT = 0

