ISS (ZARYA)             
1 25544U 98067A   26087.87455012  .00011057  00000+0  21128-3 0  9995
2 25544  51.6344 337.5169 0006219 244.1555 115.8792 15.48616916559305
POISK                   
1 36086U 09060A   26087.87455012  .00011057  00000+0  21128-3 0  9993
2 36086  51.6344 337.5169 0006219 244.1555 115.8792 15.48616916559106
CSS (TIANHE)            
1 48274U 21035A   26087.71511419  .00016171  00000+0  18634-3 0  9998
2 48274  41.4668  92.3127 0003974  49.2611 310.8573 15.61588811280580
ISS (NAUKA)             
1 49044U 21066A   26087.87455012  .00011057  00000+0  21128-3 0  9991
2 49044  51.6344 337.5169 0006219 244.1555 115.8792 15.48616916559148
FREGAT DEB              
1 49271U 11037PF  26087.45747748  .00010214  00000+0  14561-1 0  9999
2 49271  51.6446 244.4001 0961080 102.4503 268.5459 12.40739176215024
CSS (WENTIAN)           
1 53239U 22085A   26087.71511419  .00016171  00000+0  18634-3 0  9991
2 53239  41.4668  92.3127 0003974  49.2611 310.8573 15.61588811280778
CSS (MENGTIAN)          
1 54216U 22143A   26087.71511419  .00016171  00000+0  18634-3 0  9992
2 54216  41.4668  92.3127 0003974  49.2611 310.8573 15.61588811280774
TIANZHOU-9              
1 64786U 25149A   26087.71511419  .00016171  00000+0  18634-3 0  9994
2 64786  41.4668  92.3127 0003974  49.2611 310.8573 15.61588811280777
PROGRESS-MS 32          
1 65586U 25204A   26087.16470415  .00012619  00000+0  24003-3 0  9994
2 65586  51.6345 341.0267 0006226 240.9881 119.0483 15.48601072554506
YOTSUBA-KULOVER         
1 65941U 98067XN  26087.80387736  .00404262  73093-4  12353-2 0  9990
2 65941  51.6176 317.4280 0005850 214.5448 145.5178 15.91367134 26531
BOTAN                   
1 65943U 98067XQ  26087.81514034  .00375101  63623-4  12009-2 0  9991
2 65943  51.6219 317.5280 0006209 211.0535 149.0104 15.90466020 26531
HRC MONOBLOCK CAMERA    
1 66052U 98067XR  26087.68688209  .00058052  00000+0  59924-3 0  9990
2 66052  51.6284 329.5117 0003791 182.4052 177.6925 15.64203864 25369
